ONEWEB-0616             
1 55157U 23004T   24099.91527392  .00000038  00000+0  65772-4 0  9995
2 55157  87.9231 164.9009 0000833  99.7584 260.3642 13.17648833 62443
ONEWEB-0617             
1 55158U 23004U   24099.93438713 -.00000460  00000+0 -13348-2 0  9997
2 55158  87.9029 180.0490 0002506 100.5625 259.5785 13.11416517 61104
ONEWEB-0618             
1 55159U 23004V   24100.03050230  .00000275  00000+0  10550-3 0  9991
2 55159  86.9030 117.8727 0014842 140.9553 219.2713 14.26784669 65483
ONEWEB-0619             
1 55160U 23004W   24100.17472169  .00000111  00000+0  25374-3 0  9996
2 55160  87.9233 164.8259 0001660  86.0051 274.1270 13.17650843 62378
ONEWEB-0620             
1 55161U 23004X   24099.92951730 -.00000317  00000+0 -93112-3 0  9998
2 55161  87.9032 180.0582 0002549 106.2662 253.8746 13.11413760 61072
ONEWEB-0621             
1 55162U 23004Y   24099.95548405 -.00000214  00000+0 -63918-3 0  9990
2 55162  87.9027 180.0240 0002074  90.6284 269.5082 13.11420321 61053
ONEWEB-0622             
1 55163U 23004Z   24099.96199446  .00000077  00000+0  18280-3 0  9996
2 55163  87.9028 180.0379 0002979  96.9166 263.2300 13.11419162 61044
ONEWEB-0623             
1 55164U 23004AA  24100.16998152  .00000110  00000+0  24938-3 0  9998
2 55164  87.9235 164.8802 0002811  90.0537 270.0917 13.17648729 62363
